NORAD_CAT_ID,OBJECT_NAME,OBJECT_TYPE,EPOCH,MEAN_MOTION,ECCENTRICITY,INCLINATION,RA_OF_ASC_NODE,ARG_OF_PERICENTER,MEAN_ANOMALY,BSTAR,MEAN_MOTION_DOT,MEAN_MOTION_DDOT,TLE_LINE0,TLE_LINE1,TLE_LINE2,SEMIMAJOR_AXIS,PERIOD,APOGEE,PERIGEE,DECAYED
55426.0,STARLINK-5638,PAYLOAD,2024-04-29 21:45:29,14.98328031,0.0002822,69.9997,356.05,269.8999,90.1837,9.4881e-05,1.039e-05,0.0,0 STARLINK-5638,1 55426U 23014AM  24120.90659344  .00001039  00000-0  94881-4 0  9998,2 55426  69.9997 356.0500 0002822 269.8999  90.1837 14.98328031 69886,6950.199,96.107,574.025,570.103,0.0
55426.0,STARLINK-5638,PAYLOAD,2024-04-30 08:58:25,14.98333901,0.0002791,69.9998,354.8718,266.6416,93.4424,0.00011963,1.335e-05,0.0,0 STARLINK-5638,1 55426U 23014AM  24121.37390864  .00001335  00000-0  11963-3 0  9997,2 55426  69.9998 354.8718 0002791 266.6416  93.4424 14.98333901 69956,6950.181,96.107,573.986,570.106,0.0
55426.0,STARLINK-5638,PAYLOAD,2024-04-30 20:11:22,14.98325281,0.0003807,69.9991,353.6939,285.2493,74.8245,-2.886e-05,-4.37e-06,0.0,0 STARLINK-5638,1 55426U 23014AM  24121.84123283 -.00000437  00000-0 -28860-4 0  9997,2 55426  69.9991 353.6939 0003807 285.2493  74.8245 14.98325281 69082,6950.207,96.107,574.718,569.427,0.0
55426.0,STARLINK-5638,PAYLOAD,2024-04-30 21:47:30,14.98322781,0.0003007,69.9996,353.5258,269.351,90.7305,-5.9088e-05,-7.98e-06,0.0,0 STARLINK-5638,1 55426U 23014AM  24121.90799451 -.00000798  00000-0 -59088-4 0  9996,2 55426  69.9996 353.5258 0003007 269.3510  90.7305 14.98322781 70038,6950.215,96.107,574.17,569.99,0.0
55426.0,STARLINK-5638,PAYLOAD,2024-05-01 09:00:27,14.98325956,0.000294,69.9996,352.3463,269.1757,90.9065,-4.5599e-05,-6.37e-06,0.0,0 STARLINK-5638,1 55426U 23014AM  24122.37531292 -.00000637  00000-0 -45599-4 0  9999,2 55426  69.9996 352.3463 0002940 269.1757  90.9065 14.98325956 70109,6950.205,96.107,574.114,570.027,0.0
55426.0,STARLINK-5638,PAYLOAD,2024-05-01 21:49:31,14.983274,0.0003024,69.9993,350.9997,269.075,91.0063,-6.5447e-05,-8.74e-06,0.0,0 STARLINK-5638,1 55426U 23014AM  24122.90939283 -.00000874  00000-0 -65447-4 0  9997,2 55426  69.9993 350.9997 0003024 269.0750  91.0063 14.98327400 70182,6950.201,96.107,574.168,569.964,0.0
55426.0,STARLINK-5638,PAYLOAD,2024-05-02 01:01:47,14.98329301,0.0003028,69.9992,350.6629,269.7527,90.3285,-4.727e-05,-6.57e-06,0.0,0 STARLINK-5638,1 55426U 23014AM  24123.04291123 -.00000657  00000-0 -47270-4 0  9990,2 55426  69.9992 350.6629 0003028 269.7527  90.3285 14.98329301 69260,6950.195,96.107,574.165,569.956,0.0
55426.0,STARLINK-5638,PAYLOAD,2024-05-02 13:50:50,14.98410521,0.0003162,69.9992,349.316,276.3589,83.721,-0.0013871,-0.00016639,0.0,0 STARLINK-5638,1 55426U 23014AM  24123.57697394 -.00016639  00000-0 -13871-2 0  9993,2 55426  69.9992 349.3160 0003162 276.3589  83.7210 14.98410521 70289,6949.944,96.102,574.006,569.611,0.0
55426.0,STARLINK-5638,PAYLOAD,2024-05-02 20:15:26,14.98221512,0.0004501,69.999,348.6429,256.8716,103.1941,0.0019873,0.00023635,0.0,0 STARLINK-5638,1 55426U 23014AM  24123.84405670  .00023635  00000-0  19873-2 0  9997,2 55426  69.9990 348.6429 0004501 256.8716 103.1941 14.98221512 69387,6950.528,96.114,575.522,569.265,0.0
55426.0,STARLINK-5638,PAYLOAD,2024-05-03 01:03:47,14.98329814,0.000298,69.999,348.1376,271.0354,89.0464,0.00018559,2.122e-05,0.0,0 STARLINK-5638,1 55426U 23014AM  24124.04430264  .00002122  00000-0  18559-3 0  9996,2 55426  69.9990 348.1376 0002980 271.0354  89.0464 14.98329814 69419,6950.193,96.107,574.13,569.987,0.0
55426.0,STARLINK-5638,PAYLOAD,2024-05-03 21:53:32,14.98333548,0.0002886,69.9991,345.9503,266.9201,93.1628,0.00013684,1.54e-05,0.0,0 STARLINK-5638,1 55426U 23014AM  24124.91218156  .00001540  00000-0  13684-3 0  9993,2 55426  69.9991 345.9503 0002886 266.9201  93.1628 14.98333548 70482,6950.182,96.107,574.053,570.041,0.0
55426.0,STARLINK-5638,PAYLOAD,2024-05-04 01:05:48,14.98335421,0.0002948,69.9989,345.6125,271.2602,88.822,0.00014069,1.586e-05,0.0,0 STARLINK-5638,1 55426U 23014AM  24125.04570028  .00001586  00000-0  14069-3 0  9995,2 55426  69.9989 345.6125 0002948 271.2602  88.8220 14.98335421 69567,6950.176,96.107,574.09,569.992,0.0
55426.0,STARLINK-5638,PAYLOAD,2024-05-04 20:19:26,14.98325801,0.0002854,70.0,343.5949,263.3739,96.7095,1.175e-05,4.7e-07,0.0,0 STARLINK-5638,1 55426U 23014AM  24125.84683055  .00000047  00000-0  11750-4 0  9994,2 55426  70.0000 343.5949 0002854 263.3739  96.7095 14.98325801 69686,6950.206,96.107,574.054,570.087,0.0
55426.0,STARLINK-5638,PAYLOAD,2024-05-05 13:56:54,14.98333003,0.000318,69.9983,341.7406,270.1507,89.9288,-3.758e-06,-1.38e-06,0.0,0 STARLINK-5638,1 55426U 23014AM  24126.58118640 -.00000138  00000-0 -37580-5 0  9992,2 55426  69.9983 341.7406 0003180 270.1507  89.9288 14.98333003 70732,6950.184,96.107,574.259,569.838,0.0
55426.0,STARLINK-5638,PAYLOAD,2024-05-05 20:21:26,14.9832624,0.0003019,69.9986,341.0672,266.6544,93.427,0.00023435,2.704e-05,0.0,0 STARLINK-5638,1 55426U 23014AM  24126.84822409  .00002704  00000-0  23435-3 0  9997,2 55426  69.9986 341.0672 0003019 266.6544  93.4270 14.98326240 69830,6950.205,96.107,574.168,569.971,0.0
55426.0,STARLINK-5638,PAYLOAD,2024-05-05 21:57:34,14.98338211,0.000297,69.9985,340.8986,268.9155,91.1664,6.7398e-05,7.11e-06,0.0,0 STARLINK-5638,1 55426U 23014AM  24126.91498074  .00000711  00000-0  67398-4 0  9995,2 55426  69.9985 340.8986 0002970 268.9155  91.1664 14.98338211 70781,6950.167,96.106,574.097,569.968,0.0
55426.0,STARLINK-5638,PAYLOAD,2024-05-05 23:33:42,14.98338977,0.0002843,69.9985,340.7303,265.5072,94.5762,7.5838e-05,8.12e-06,0.0,0 STARLINK-5638,1 55426U 23014AM  24126.98173983  .00000812  00000-0  75838-4 0  9991,2 55426  69.9985 340.7303 0002843 265.5072  94.5762 14.98338977 69854,6950.165,96.106,574.006,570.054,0.0
55426.0,STARLINK-5638,PAYLOAD,2024-05-06 20:23:29,14.9831869,0.0003273,69.9981,338.5423,270.8972,89.1812,9.1076e-06,1.6e-07,0.0,0 STARLINK-5638,1 55426U 23014AM  24127.84964509  .00000016  00000-0  91076-5 0  9998,2 55426  69.9981 338.5423 0003273 270.8972  89.1812 14.98318690 69984,6950.228,96.108,574.368,569.818,0.0
55426.0,STARLINK-5638,PAYLOAD,2024-05-06 21:59:37,14.98318225,0.000319,69.9983,338.3739,271.9661,88.1133,1.7897e-05,1.2e-06,0.0,0 STARLINK-5638,1 55426U 23014AM  24127.91640599  .00000120  00000-0  17897-4 0  9990,2 55426  69.9983 338.3739 0003190 271.9661  88.1133 14.98318225 70935,6950.229,96.108,574.311,569.877,0.0
55426.0,STARLINK-5638,PAYLOAD,2024-05-07 12:24:49,14.98330724,0.0002973,69.9985,336.8586,268.9997,91.0821,4.7517e-05,4.74e-06,0.0,0 STARLINK-5638,1 55426U 23014AM  24128.51724172  .00000474  00000-0  47517-4 0  9991,2 55426  69.9985 336.8586 0002973 268.9997  91.0821 14.98330724 70087,6950.191,96.107,574.122,569.989,0.0
55426.0,STARLINK-5638,PAYLOAD,2024-05-07 14:00:57,14.98330659,0.0003247,69.9982,336.6902,271.7489,88.3298,4.5267e-05,4.47e-06,0.0,0 STARLINK-5638,1 55426U 23014AM  24128.58400206  .00000447  00000-0  45267-4 0  9997,2 55426  69.9982 336.6902 0003247 271.7489  88.3298 14.98330659 71037,6950.191,96.107,574.313,569.799,0.0
55426.0,STARLINK-5638,PAYLOAD,2024-05-07 22:01:37,14.98337557,0.0003134,69.9984,335.8482,270.5618,89.5182,0.00013712,1.544e-05,0.0,0 STARLINK-5638,1 55426U 23014AM  24128.91779618  .00001544  00000-0  13712-3 0  9998,2 55426  69.9984 335.8482 0003134 270.5618  89.5182 14.98337557 71083,6950.17,96.107,574.213,569.856,0.0
55426.0,STARLINK-5638,PAYLOAD,2024-05-08 07:38:25,14.98346148,0.000304,69.9986,334.839,273.2684,86.8127,0.00024529,2.836e-05,0.0,0 STARLINK-5638,1 55426U 23014AM  24129.31835070  .00002836  00000-0  24529-3 0  9991,2 55426  69.9986 334.8390 0003040 273.2684  86.8127 14.98346148 70209,6950.143,96.106,574.121,569.895,0.0
55426.0,STARLINK-5638,PAYLOAD,2024-05-08 14:02:58,14.98346623,0.0003179,69.9995,334.1659,270.6946,89.3849,0.0005286,6.223e-05,0.0,0 STARLINK-5638,1 55426U 23014AM  24129.58539635  .00006223  00000-0  52860-3 0  9991,2 55426  69.9995 334.1659 0003179 270.6946  89.3849 14.98346623 71180,6950.141,96.106,574.216,569.797,0.0
55426.0,STARLINK-5638,PAYLOAD,2024-05-08 22:03:37,14.98365763,0.0003161,70.0001,333.3238,269.4701,90.6096,0.00095264,0.00011303,0.0,0 STARLINK-5638,1 55426U 23014AM  24129.91918912  .00011303  00000-0  95264-3 0  9997,2 55426  70.0001 333.3238 0003161 269.4701  90.6096 14.98365763 71232,6950.082,96.105,574.144,569.75,0.0
55426.0,STARLINK-5638,PAYLOAD,2024-05-08 23:39:45,14.98369043,0.0003171,70.0001,333.1554,269.5418,90.5378,0.0010427,0.00012383,0.0,0 STARLINK-5638,1 55426U 23014AM  24129.98594733  .00012383  00000-0  10427-2 0  9991,2 55426  70.0001 333.1554 0003171 269.5418  90.5378 14.98369043 70302,6950.072,96.104,574.141,569.733,0.0
55426.0,STARLINK-5638,PAYLOAD,2024-05-09 14:04:57,14.98356872,0.0002477,70.0032,331.6442,259.6909,100.3971,0.00026225,3.04e-05,0.0,0 STARLINK-5638,1 55426U 23014AM  24130.58678217  .00003040  00000-0  26225-3 0  9993,2 55426  70.0032 331.6442 0002477 259.6909 100.3971 14.98356872 71337,6950.11,96.105,573.696,570.253,0.0
55426.0,STARLINK-5638,PAYLOAD,2024-05-09 20:29:30,14.98352264,0.0002925,70.0011,330.9702,257.7552,102.3279,0.00019461,2.231e-05,0.0,0 STARLINK-5638,1 55426U 23014AM  24130.85382141  .00002231  00000-0  19461-3 0  9996,2 55426  70.0011 330.9702 0002925 257.7552 102.3279 14.98352264 70430,6950.124,96.106,574.022,569.956,0.0
55426.0,STARLINK-5638,PAYLOAD,2024-05-09 22:05:38,14.98349445,0.0002908,70.0011,330.8017,255.4195,104.6641,0.00013729,1.546e-05,0.0,0 STARLINK-5638,1 55426U 23014AM  24130.92058159  .00001546  00000-0  13729-3 0  9992,2 55426  70.0011 330.8017 0002908 255.4195 104.6641 14.98349445 71387,6950.133,96.106,574.019,569.977,0.0
55426.0,STARLINK-5638,PAYLOAD,2024-05-10 14:06:58,14.98341747,0.0002744,70.0015,329.1147,265.775,94.3095,2.1325e-05,1.62e-06,0.0,0 STARLINK-5638,1 55426U 23014AM  24131.58818225  .00000162  00000-0  21325-4 0  9998,2 55426  70.0015 329.1147 0002744 265.7750  94.3095 14.98341747 71481,6950.157,96.106,573.929,570.114,0.0
